{
  "type": "FeatureCollection",
  "features": [
    {
      "type": "Feature",
      "properties": {
        "norad_id": 35786,
        "name": "COSMOS 2251 DEB",
        "group": "cosmos-2251-debris",
        "lat": -18.08837664655839,
        "lon": 53.52796423712512,
        "alt_km": 699.9026957457163,
        "timestamp": "2025-12-04T21:36:16.268628+00:00",
        "meta_object_name": "COSMOS 2251 DEB",
        "meta_object_id": "1993-036ASG",
        "meta_epoch": "2025-12-02T12:22:11.536320",
        "meta_mean_motion": 14.66021148,
        "meta_eccentricity": 0.00350306,
        "meta_inclination": 74.016,
        "meta_ra_of_asc_node": 63.4983,
        "meta_arg_of_pericenter": 195.5115,
        "meta_mean_anomaly": 164.4984,
        "meta_ephemeris_type": 0,
        "meta_classification_type": "U",
        "meta_norad_cat_id": 35786,
        "meta_element_set_no": 999,
        "meta_rev_at_epoch": 73258,
        "meta_bstar": 0.0015897708,
        "meta_mean_motion_dot": 8.775e-05,
        "meta_mean_motion_ddot": 0,
        "tle_line1": "1 35786U 93036ASG 25336.51541130  .00008775  00000+0  15898-2 0  9998",
        "tle_line2": "2 35786  74.0160  63.4983 0035030 195.5115 164.4984 14.66021148732584"
      },
      "geometry": {
        "type": "Point",
        "coordinates": [
          53.52796423712512,
          -18.08837664655839
        ]
      }
    },
    {
      "type": "Feature",
      "properties": {
        "norad_id": 35789,
        "name": "COSMOS 2251 DEB",
        "group": "cosmos-2251-debris",
        "lat": 13.926473738614842,
        "lon": 114.69106510320944,
        "alt_km": 791.7334430152969,
        "timestamp": "2025-12-04T21:36:16.268638+00:00",
        "meta_object_name": "COSMOS 2251 DEB",
        "meta_object_id": "1993-036ASK",
        "meta_epoch": "2025-12-04T04:07:13.820736",
        "meta_mean_motion": 14.3597471,
        "meta_eccentricity": 0.00471528,
        "meta_inclination": 74.0391,
        "meta_ra_of_asc_node": 300.0971,
        "meta_arg_of_pericenter": 41.8218,
        "meta_mean_anomaly": 318.6522,
        "meta_ephemeris_type": 0,
        "meta_classification_type": "U",
        "meta_norad_cat_id": 35789,
        "meta_element_set_no": 999,
        "meta_rev_at_epoch": 61104,
        "meta_bstar": 0.00025299607,
        "meta_mean_motion_dot": 7.18e-06,
        "meta_mean_motion_ddot": 0,
        "tle_line1": "1 35789U 93036ASK 25338.17168774  .00000718  00000+0  25300-3 0  9993",
        "tle_line2": "2 35789  74.0391 300.0971 0047152  41.8218 318.6522 14.35974710611041"
      },
      "geometry": {
        "type": "Point",
        "coordinates": [
          114.69106510320944,
          13.926473738614842
        ]
      }
    },
    {
      "type": "Feature",
      "properties": {
        "norad_id": 35793,
        "name": "COSMOS 2251 DEB",
        "group": "cosmos-2251-debris",
        "lat": 72.33973014877954,
        "lon": -168.41904439471168,
        "alt_km": 625.7877861393808,
        "timestamp": "2025-12-04T21:36:16.268648+00:00",
        "meta_object_name": "COSMOS 2251 DEB",
        "meta_object_id": "1993-036ASP",
        "meta_epoch": "2025-11-29T00:24:11.235744",
        "meta_mean_motion": 14.78106278,
        "meta_eccentricity": 0.00040307,
        "meta_inclination": 74.0402,
        "meta_ra_of_asc_node": 87.138,
        "meta_arg_of_pericenter": 165.1184,
        "meta_mean_anomaly": 317.1346,
        "meta_ephemeris_type": 0,
        "meta_classification_type": "U",
        "meta_norad_cat_id": 35793,
        "meta_element_set_no": 999,
        "meta_rev_at_epoch": 65594,
        "meta_bstar": 0.0021008898,
        "meta_mean_motion_dot": 0.00015203,
        "meta_mean_motion_ddot": 0,
        "tle_line1": "1 35793U 93036ASP 25333.01679671  .00015203  00000+0  21009-2 0  9995",
        "tle_line2": "2 35793  74.0402  87.1380 0004030 165.1184 317.1346 14.78106278655944"
      },
      "geometry": {
        "type": "Point",
        "coordinates": [
          -168.41904439471168,
          72.33973014877954
        ]
      }
    },
    {
      "type": "Feature",
      "properties": {
        "norad_id": 35824,
        "name": "COSMOS 2251 DEB",
        "group": "cosmos-2251-debris",
        "lat": 39.25350646923662,
        "lon": -131.43367445995048,
        "alt_km": 751.2696118243921,
        "timestamp": "2025-12-04T21:36:16.268658+00:00",
        "meta_object_name": "COSMOS 2251 DEB",
        "meta_object_id": "1993-036ASW",
        "meta_epoch": "2025-12-03T12:05:08.597472",
        "meta_mean_motion": 13.88357909,
        "meta_eccentricity": 0.02501454,
        "meta_inclination": 73.8459,
        "meta_ra_of_asc_node": 64.6657,
        "meta_arg_of_pericenter": 152.4307,
        "meta_mean_anomaly": 209.0351,
        "meta_ephemeris_type": 0,
        "meta_classification_type": "U",
        "meta_norad_cat_id": 35824,
        "meta_element_set_no": 999,
        "meta_rev_at_epoch": 84099,
        "meta_bstar": 0.0020735278,
        "meta_mean_motion_dot": 3.165e-05,
        "meta_mean_motion_ddot": 0,
        "tle_line1": "1 35824U 93036ASW 25337.50357173  .00003165  00000+0  20735-2 0  9997",
        "tle_line2": "2 35824  73.8459  64.6657 0250145 152.4307 209.0351 13.88357909840996"
      },
      "geometry": {
        "type": "Point",
        "coordinates": [
          -131.43367445995048,
          39.25350646923662
        ]
      }
    },
    {
      "type": "Feature",
      "properties": {
        "norad_id": 35825,
        "name": "COSMOS 2251 DEB",
        "group": "cosmos-2251-debris",
        "lat": -65.20978756283596,
        "lon": 117.46895812365739,
        "alt_km": 790.0242117054668,
        "timestamp": "2025-12-04T21:36:16.268668+00:00",
        "meta_object_name": "COSMOS 2251 DEB",
        "meta_object_id": "1993-036ASX",
        "meta_epoch": "2025-11-18T20:38:01.180896",
        "meta_mean_motion": 13.70825357,
        "meta_eccentricity": 0.03535711,
        "meta_inclination": 74.1138,
        "meta_ra_of_asc_node": 181.8907,
        "meta_arg_of_pericenter": 283.1782,
        "meta_mean_anomaly": 73.0118,
        "meta_ephemeris_type": 0,
        "meta_classification_type": "U",
        "meta_norad_cat_id": 35825,
        "meta_element_set_no": 999,
        "meta_rev_at_epoch": 82181,
        "meta_bstar": 0.0013809564,
        "meta_mean_motion_dot": 1.891e-05,
        "meta_mean_motion_ddot": 0,
        "tle_line1": "1 35825U 93036ASX 25322.85973589  .00001891  00000+0  13810-2 0  9995",
        "tle_line2": "2 35825  74.1138 181.8907 0353571 283.1782  73.0118 13.70825357821819"
      },
      "geometry": {
        "type": "Point",
        "coordinates": [
          117.46895812365739,
          -65.20978756283596
        ]
      }
    },
    {
      "type": "Feature",
      "properties": {
        "norad_id": 35829,
        "name": "COSMOS 2251 DEB",
        "group": "cosmos-2251-debris",
        "lat": 73.05392869969177,
        "lon": -175.74089820482428,
        "alt_km": 634.6335351088892,
        "timestamp": "2025-12-04T21:36:16.268678+00:00",
        "meta_object_name": "COSMOS 2251 DEB",
        "meta_object_id": "1993-036ATB",
        "meta_epoch": "2025-12-04T01:42:07.569216",
        "meta_mean_motion": 14.75878061,
        "meta_eccentricity": 0.00074898,
        "meta_inclination": 74.0233,
        "meta_ra_of_asc_node": 115.7881,
        "meta_arg_of_pericenter": 173.9555,
        "meta_mean_anomaly": 186.1711,
        "meta_ephemeris_type": 0,
        "meta_classification_type": "U",
        "meta_norad_cat_id": 35829,
        "meta_element_set_no": 999,
        "meta_rev_at_epoch": 87647,
        "meta_bstar": 0.0046734359,
        "meta_mean_motion_dot": 0.00032229,
        "meta_mean_motion_ddot": 0,
        "tle_line1": "1 35829U 93036ATB 25338.07092094  .00032229  00000+0  46734-2 0  9993",
        "tle_line2": "2 35829  74.0233 115.7881 0007489 173.9555 186.1711 14.75878061876476"
      },
      "geometry": {
        "type": "Point",
        "coordinates": [
          -175.74089820482428,
          73.05392869969177
        ]
      }
    },
    {
      "type": "Feature",
      "properties": {
        "norad_id": 35830,
        "name": "COSMOS 2251 DEB",
        "group": "cosmos-2251-debris",
        "lat": 54.41588890516135,
        "lon": -55.42864038989749,
        "alt_km": 892.9695987366222,
        "timestamp": "2025-12-04T21:36:16.268688+00:00",
        "meta_object_name": "COSMOS 2251 DEB",
        "meta_object_id": "1993-036ATC",
        "meta_epoch": "2025-12-04T04:28:02.479584",
        "meta_mean_motion": 14.23905065,
        "meta_eccentricity": 0.01230731,
        "meta_inclination": 73.8631,
        "meta_ra_of_asc_node": 282.002,
        "meta_arg_of_pericenter": 251.8911,
        "meta_mean_anomaly": 106.8799,
        "meta_ephemeris_type": 0,
        "meta_classification_type": "U",
        "meta_norad_cat_id": 35830,
        "meta_element_set_no": 999,
        "meta_rev_at_epoch": 61142,
        "meta_bstar": 0.0019117208,
        "meta_mean_motion_dot": 4.714e-05,
        "meta_mean_motion_ddot": 0,
        "tle_line1": "1 35830U 93036ATC 25338.18613981  .00004714  00000+0  19117-2 0  9994",
        "tle_line2": "2 35830  73.8631 282.0020 0123073 251.8911 106.8799 14.23905065611425"
      },
      "geometry": {
        "type": "Point",
        "coordinates": [
          -55.42864038989749,
          54.41588890516135
        ]
      }
    }
  ]
}